#cP2023  3 19  0  0  0.00000000      96 ORBIT IGS20 HLM  IGS
## 2254      0.00000000   900.00000000 60022 0.0000000000000
+   32   G01G02G03G04G05G06G07G08G09G10G11G12G13G14G15G16G17
+        G18G19G20G21G22G23G24G25G26G27G28G29G30G31G32  0  0
+          0  0  0  0  0  0  0  0  0  0  0  0  0  0  0  0  0
+          0  0  0  0  0  0  0  0  0  0  0  0  0  0  0  0  0
+          0  0  0  0  0  0  0  0  0  0  0  0  0  0  0  0  0
++         2  2  2  2  2  2  2  2  2  2  2  2  2  2  2  2  2
++         2  2  2  2  4  2  2  2  2  2  3  2  2  2  2  0  0
++         0  0  0  0  0  0  0  0  0  0  0  0  0  0  0  0  0
++         0  0  0  0  0  0  0  0  0  0  0  0  0  0  0  0  0
++         0  0  0  0  0  0  0  0  0  0  0  0  0  0  0  0  0
%c G  cc GPS ccc cccc cccc cccc cccc ccccc ccccc ccccc ccccc
%c cc cc ccc ccc cccc cccc cccc cccc ccccc ccccc ccccc ccccc
%f  1.2500000  1.025000000  0.00000000000  0.000000000000000
%f  0.0000000  0.000000000  0.00000000000  0.000000000000000
%i    0    0    0    0      0      0      0      0         0
%i    0    0    0    0      0      0      0      0         0
/* RAPID ORBIT COMBINATION FROM WEIGHTED AVERAGE OF:        
/* cod emr esa gfz grg jpl ngs sio usn whu                  
/* REFERENCED TO IGS TIME (IGST) AND TO WEIGHTED MEAN POLE: 
/* PCV:IGS20_2233 OL/AL:FES2014b NONE     Y  ORB:CMB CLK:CMB
*  2023  3 19 12 45  0.00000000
PG01 -16574.222451 -13693.439672 -16150.998778    201.282280  6  5  5  76       
PG02  19486.801336  11444.729209  14375.798693   -613.186451  4  3  7 107       
PG03 -12915.880192 -22456.927860   6011.489920   -347.018510  7  3  7  96       
PG04  -8614.959941 -12933.508001  21538.507513     -3.542964  6  6  6 101       
PG05   3798.720862  24534.429258   9100.136019   -120.061753  7  3  4 100       
PG06 -21207.670263   6322.135744  14824.791358    582.346124  6  5  6  93       
PG07 -25425.494537  -7465.442056   4612.063940    219.937413  9  4  7  87       
PG08   1572.667482 -20769.039352 -16311.257857   -113.667081  8  6  8  90       
PG09 -16668.623830  -2147.599797  20504.851911   -197.589145  4  6  6 110       
PG10  14214.113226  -4158.479837 -21879.070574    -29.190414  6  7  3  76       
PG11  -8239.745159  13400.921000  21405.611085   -135.043838  4  6  6 105       
PG12  10191.559877  24221.073416   3915.725486   -353.395316  8  4  5  87       
PG13 -10247.021765  21150.737215 -12352.273211    492.839841  5  5  5 107       
PG14 -15792.321915   1106.036403 -21334.542032      0.239434  7  6  5  97       
PG15   1691.528810  20940.786230 -16545.558544     22.926769  8  4  5 104       
PG16   1162.672535 -23766.615292  10996.934409   -514.500944  6  4  7 108       
PG17 -20931.504930  10646.154823 -12077.718549    706.282777 10  2  7  99       
PG18  26216.768696   4733.392337     73.313070   -186.340001 12  5  5  75       
PG19 -20269.691407  16558.860873  -3731.242368    292.096851  8  6  7  86       
PG20  -2955.143567  19851.257689  17532.296674    444.088255  3  6  5 103       
PG21  -9192.259433 -14565.096369 -19867.307678    154.335223  5  3  4  88       
PG22  18205.876307 -19208.515988    249.702101    448.152223 11 10 13  29       
PG23  17165.280773   8495.970196 -18458.727782     11.487896  8  4  5  88       
PG24  13024.033384  14621.048586 -18476.758680   -117.873289  6  6  4 108       
PG25  16117.398094  17190.522046  12204.375520    428.912021  6  6  4  90       
PG26   9196.467045 -14931.184770  19738.879501    241.980048  4  5  5 106       
PG27  11282.124131 -22559.290337  -7841.207592     77.710958  7  3  7  78       
PG28  22331.344790  -6296.814179  12891.767089     46.938285 13  8  8  95       
PG29  13848.631710   6599.928215  21639.743564   -591.556590  4  3  4 108       
PG30 -25435.245754   1548.556695  -7852.675125   -526.265375  8  5  4 101       
PG31  18829.804650  -8592.670463  16725.646488   -211.968404  7  2  4 111       
PG32  20114.791668 -13641.778203 -10297.727221   -427.800252  7  8  6  41       
*  2023  3 19 13  0  0.00000000
PG01 -14700.576043 -13509.703134 -18017.378295    201.278836  6  5  5  79       
PG02  17809.070221  11537.353656  16441.576555   -613.183687  4  3  7 102       
PG03 -12944.055846 -23028.655286   3193.429236   -347.012299  7  3  7  92       
PG04  -7035.323366 -14777.628185  20906.839280     -3.535087  5  6  6 104       
PG05   3074.006316  23537.544473  11622.384108   -120.063238  6  3  4 100       
PG06 -22724.437256   5987.788788  12537.571955    582.348488  7  5  6  96       
PG07 -24777.783737  -7614.365808   7312.035188    219.930521  9  5  7  98       
PG08   2763.273865 -22073.611945 -14271.642741   -113.667576  8  6  8  91       
PG09 -15312.279698  -4133.694762  21238.584662   -197.582365  4  6  6 109       
PG10  15184.427089  -1835.282362 -21572.765079    -29.192252  7  7  4 102       
PG11 -10594.623550  12914.845720  20651.941823   -135.054181  5  6  7 113       
PG12  10070.854675  24595.406645   1074.527493   -353.399619  8  4  5  85       
PG13 -11280.139409  21888.469152  -9866.031363    492.845024  5  4  5 100       
PG14 -16599.706408  -1164.745835 -20721.798844      0.248764  7  6  5 107       
PG15    640.910907  22332.398700 -14611.223691     22.929587  8  3  6  98       
PG16   1832.044318 -22454.437366  13384.413037   -514.498967  5  5  7 111       
PG17 -20038.306810   9341.520634 -14364.744508    706.284530  9  3  7 105       
PG18  26017.623790   4913.583800   2939.302000   -186.354794 12  5  5  83       
PG19 -20048.216695  15989.834784  -6549.658404    292.101197  8  6  7  77       
PG20  -4191.964956  18169.534096  19024.247606    444.085924  3  6  5  87       
PG21  -6767.529529 -14521.844401 -20750.701349    154.335104  6  3  4 102       
PG22  18279.684474 -18894.637122  -2615.896095    448.158855 12 11 12   9       
PG23  17883.564211  10375.051417 -16750.033234     11.489836  8  4  5  96       
PG24  10903.161912  14663.842796 -19757.884433   -117.887036  6  6  4 112       
PG25  16423.648276  18467.012728   9774.427095    428.914737  5  7  4  95       
PG26  10353.544116 -12883.717329  20615.314635    241.980154  4  5  4 115       
PG27  11914.926523 -22982.153833  -5074.900690     77.703400  6  3  7  75       
PG28  23648.229340  -5963.234901  10481.834183     46.946857 13  9  7  90       
PG29  12205.118374   8484.528807  21962.009604   -591.557948  3  3  4 110       
PG30 -26144.450443   1157.080619  -5195.722227   -526.263931  9  5  4  92       
PG31  20602.467176  -8161.380525  14798.286951   -211.969044  7  2  4 112       
PG32  19498.997302 -12419.578764 -12722.638863   -427.809969  8  8  5  69       
*  2023  3 19 13 15  0.00000000
PG01 -12628.140653 -13419.194946 -19585.054944    201.275426  6  4  5  96       
PG02  15928.820029  11720.913653  18233.300962   -613.181049  4  4  7  98       
PG03 -12862.041544 -23308.345376    320.694362   -347.006067  7  3  8  98       
PG04  -5607.457800 -16628.133600  19915.068019     -3.527170  3  6  6 108       
PG05   2164.393990  22337.743555  13941.637657   -120.064473  5  3  4 111       
PG06 -23987.673605   5759.611041  10036.399859    582.350855  7  4  6  94       
PG07 -23847.402712  -7773.927814   9891.323554    219.923521  9  6  8 105       
PG08   3755.650380 -23230.647665 -11982.808114   -113.669866  8  6  8  92       
PG09 -14025.380099  -6239.647080  21604.678853   -197.575640  4  6  6 107       
PG10  16253.208357    378.060144 -20890.389296    -29.194601  7  7  4  96       
PG11 -12867.467257  12566.032677  19542.989579   -135.064534  6  7  7 107       
PG12   9850.560544  24675.972353  -1785.111897   -353.403760  8  5  5  85       
PG13 -12080.466614  22462.278685  -7209.369815    492.849865  6  4  5  93       
PG14 -17483.242421  -3309.384613 -19753.137289      0.258090  8  5  4 109       
PG15   -245.098989  23568.344217 -12429.252239     22.932429  7  2  6 106       
PG16   2662.559720 -20934.619672  15532.075981   -514.496850  5  5  7 109       
PG17 -19066.084628   7789.968319 -16399.029994    706.286432  9  3  6 101       
PG18  25508.691452   5077.530703   5755.151184   -186.369626 11  5  5  80       
PG19 -19655.102698  15170.729789  -9254.179479    292.106098  9  6  7  71       
PG20  -5600.116005  16429.540216  20191.711415    444.083672  4  6  5 102       
PG21  -4253.421581 -14605.506694 -21262.810199    154.335063  7  4  4  87       
PG22  18169.876253 -18328.882801  -5435.708144    448.165241 13 11 11  79       
PG23  18604.370657  12026.405060 -14754.658756     11.491779  7  3  5  93       
PG24   8661.281811  14813.585172 -20712.160503   -117.900717  5  6  4 116       
PG25  16667.808233  19469.161606   7176.528146    428.917444  5  7  4  89       
PG26  11643.758823 -10827.074432  21131.487971    241.980190  4  5  4 112       
PG27  12349.289679 -23169.831765  -2219.480950     77.695863  6  3  7  79       
PG28  24697.389827  -5707.889777   7891.200545     46.955435 14  9  7  83       
PG29  10657.143645  10468.540573  21904.649180   -591.559755  3  3  5 106       
PG30 -26569.196355    825.432030  -2450.532561   -526.262558  9  6  5  77       
PG31  22161.394863  -7844.889011  12618.703505   -211.969746  6  4  4 110       
PG32  18801.652283 -10946.302242 -14924.285530   -427.819654  8  8  5  66       
EOF
